NETSAT-1                
1 46506U 20068W   26074.23638389  .00017451  00000+0  56262-3 0  9999
2 46506  97.8745  68.8812 0004923   2.1233 358.0027 15.32231967300901
NETSAT-2                
1 46507U 20068X   26074.25587816  .00025501  00000+0  60137-3 0  9991
2 46507  97.8654  74.7911 0003450   5.0212 355.1068 15.41887450301245
TIANQI-6                
1 46810U 20076D   26073.92222794  .00005576  00000+0  37134-3 0  9992
2 46810  34.9985 266.7074 0009943  55.1526 305.0117 15.06469639294359
KSM1-C                  
1 46906U 20081B   26074.26408786  .00012413  00000+0  48824-3 0  9995
2 46906  36.8936 278.0801 0001300 162.4743 197.6051 15.25051578294811
KSM1-D                  
1 46907U 20081C   26074.27949953  .00009716  00000+0  40396-3 0  9991
2 46907  36.8966 285.2908 0003161 196.2619 163.8028 15.23273967294766
KSM1-A                  
1 46912U 20081H   26074.02571573  .00013195  00000+0  52923-3 0  9994
2 46912  36.8964 281.2749 0002846 277.3136  82.7289 15.24378754294795
R2                      
1 46913U 20081J   26073.95179794  .00011532  00000+0  46914-3 0  9991
2 46913  36.8976 281.2691 0006159 211.9518 148.0858 15.23932812297593
KSM1-B                  
1 46914U 20081K   26074.27064758  .00010457  00000+0  43667-3 0  9998
2 46914  36.9020 285.7344 0005385 219.2091 140.8268 15.23092026297854
GONETS-M 20             
1 47227U 20091A   26074.22736572  .00000013  00000+0  23584-4 0  9996
2 47227  82.5098   0.8413 0021791  27.4411 332.7815 12.42890315239403
GONETS-M 21             
1 47228U 20091B   26074.28112781 -.00000019  00000+0 -20840-3 0  9992
2 47228  82.5024 359.5728 0015761  41.4230 318.8042 12.42881420239405
GONETS-M 22             
1 47229U 20091C   26074.25468141 -.00000040  00000+0 -35932-3 0  9996
2 47229  82.5080   0.4440 0022605  22.7794 337.4283 12.42887873239359
CUBEL                   
1 47448U 21006AM  26074.08887174  .00012228  00000+0  31451-3 0  9999
2 47448  97.2471 125.6371 0007843 142.4226 217.7570 15.39370514285278
ASTROCAST-0103          
1 47487U 21006CC  26074.16918259  .00099809  00000+0  68998-3 0  9996
2 47487  97.2627 143.7922 0005682 142.1671 217.9994 15.74217723286383
ARKTIKA-M 1             
1 47719U 21016A   26072.78872222 -.00000108  00000+0  00000+0 0  9991
2 47719  63.2042  71.2738 7248342 269.5023  15.1596  2.00619294 36876
STARLINK-2342           
1 47883U 21021Z   26074.18280208  .00076797  00000+0  15896-2 0  9990
2 47883  53.1600 241.8695 0000767  67.7175 292.3913 15.45121825277273
GRUS-1B                 
1 47934U 21022C   26074.31409284  .00001523  00000+0  13105-3 0  9997
2 47934  97.5544 320.5400 0014489 280.9526  79.0067 14.98753251271830
2021-022F               
1 47937U 21022F   26074.27722573  .00011346  00000+0  37530-3 0  9996
2 47937  97.3987 335.1180 0011916  70.2787 289.9739 15.31438187275333
