[{"OBJECT_NAME":"NETSAT-1","OBJECT_ID":"2020-068W","EPOCH":"2026-03-15T05:40:23.568096","MEAN_MOTION":15.32231967,"ECCENTRICITY":0.00049237,"INCLINATION":97.8745,"RA_OF_ASC_NODE":68.8812,"ARG_OF_PERICENTER":2.1233,"MEAN_ANOMALY":358.0027,"EPHEMERIS_TYPE":0,"CLASSIFICATION_TYPE":"U","NORAD_CAT_ID":46506,"ELEMENT_SET_NO":999,"REV_AT_EPOCH":30090,"BSTAR":0.00056262266,"MEAN_MOTION_DOT":0.00017451,"MEAN_MOTION_DDOT":0},{"OBJECT_NAME":"NETSAT-2","OBJECT_ID":"2020-068X","EPOCH":"2026-03-15T06:08:27.873024","MEAN_MOTION":15.4188745,"ECCENTRICITY":0.00034504,"INCLINATION":97.8654,"RA_OF_ASC_NODE":74.7911,"ARG_OF_PERICENTER":5.0212,"MEAN_ANOMALY":355.1068,"EPHEMERIS_TYPE":0,"CLASSIFICATION_TYPE":"U","NORAD_CAT_ID":46507,"ELEMENT_SET_NO":999,"REV_AT_EPOCH":30124,"BSTAR":0.00060137425,"MEAN_MOTION_DOT":0.00025501,"MEAN_MOTION_DDOT":0},{"OBJECT_NAME":"TIANQI-6","OBJECT_ID":"2020-076D","EPOCH":"2026-03-14T22:08:00.494016","MEAN_MOTION":15.06469639,"ECCENTRICITY":0.00099439,"INCLINATION":34.9985,"RA_OF_ASC_NODE":266.7074,"ARG_OF_PERICENTER":55.1526,"MEAN_ANOMALY":305.0117,"EPHEMERIS_TYPE":0,"CLASSIFICATION_TYPE":"U","NORAD_CAT_ID":46810,"ELEMENT_SET_NO":999,"REV_AT_EPOCH":29435,"BSTAR":0.00037134428,"MEAN_MOTION_DOT":5.576e-5,"MEAN_MOTION_DDOT":0},{"OBJECT_NAME":"KSM1-C","OBJECT_ID":"2020-081B","EPOCH":"2026-03-15T06:20:17.191104","MEAN_MOTION":15.25051578,"ECCENTRICITY":0.00013008,"INCLINATION":36.8936,"RA_OF_ASC_NODE":278.0801,"ARG_OF_PERICENTER":162.4743,"MEAN_ANOMALY":197.6051,"EPHEMERIS_TYPE":0,"CLASSIFICATION_TYPE":"U","NORAD_CAT_ID":46906,"ELEMENT_SET_NO":999,"REV_AT_EPOCH":29481,"BSTAR":0.000488237,"MEAN_MOTION_DOT":0.00012413,"MEAN_MOTION_DDOT":0},{"OBJECT_NAME":"KSM1-D","OBJECT_ID":"2020-081C","EPOCH":"2026-03-15T06:42:28.759392","MEAN_MOTION":15.23273967,"ECCENTRICITY":0.00031616,"INCLINATION":36.8966,"RA_OF_ASC_NODE":285.2908,"ARG_OF_PERICENTER":196.2619,"MEAN_ANOMALY":163.8028,"EPHEMERIS_TYPE":0,"CLASSIFICATION_TYPE":"U","NORAD_CAT_ID":46907,"ELEMENT_SET_NO":999,"REV_AT_EPOCH":29476,"BSTAR":0.00040396434,"MEAN_MOTION_DOT":9.716e-5,"MEAN_MOTION_DDOT":0},{"OBJECT_NAME":"KSM1-A","OBJECT_ID":"2020-081H","EPOCH":"2026-03-15T00:37:01.839072","MEAN_MOTION":15.24378754,"ECCENTRICITY":0.00028466,"INCLINATION":36.8964,"RA_OF_ASC_NODE":281.2749,"ARG_OF_PERICENTER":277.3136,"MEAN_ANOMALY":82.7289,"EPHEMERIS_TYPE":0,"CLASSIFICATION_TYPE":"U","NORAD_CAT_ID":46912,"ELEMENT_SET_NO":999,"REV_AT_EPOCH":29479,"BSTAR":0.00052922719,"MEAN_MOTION_DOT":0.00013195,"MEAN_MOTION_DDOT":0},{"OBJECT_NAME":"R2","OBJECT_ID":"2020-081J","EPOCH":"2026-03-14T22:50:35.342016","MEAN_MOTION":15.23932812,"ECCENTRICITY":0.00061597,"INCLINATION":36.8976,"RA_OF_ASC_NODE":281.2691,"ARG_OF_PERICENTER":211.9518,"MEAN_ANOMALY":148.0858,"EPHEMERIS_TYPE":0,"CLASSIFICATION_TYPE":"U","NORAD_CAT_ID":46913,"ELEMENT_SET_NO":999,"REV_AT_EPOCH":29759,"BSTAR":0.00046913972,"MEAN_MOTION_DOT":0.00011532,"MEAN_MOTION_DDOT":0},{"OBJECT_NAME":"KSM1-B","OBJECT_ID":"2020-081K","EPOCH":"2026-03-15T06:29:43.950912","MEAN_MOTION":15.23092026,"ECCENTRICITY":0.00053857,"INCLINATION":36.902,"RA_OF_ASC_NODE":285.7344,"ARG_OF_PERICENTER":219.2091,"MEAN_ANOMALY":140.8268,"EPHEMERIS_TYPE":0,"CLASSIFICATION_TYPE":"U","NORAD_CAT_ID":46914,"ELEMENT_SET_NO":999,"REV_AT_EPOCH":29785,"BSTAR":0.00043666975,"MEAN_MOTION_DOT":0.00010457,"MEAN_MOTION_DDOT":0},{"OBJECT_NAME":"GONETS-M 20","OBJECT_ID":"2020-091A","EPOCH":"2026-03-15T05:27:24.398208","MEAN_MOTION":12.42890315,"ECCENTRICITY":0.00217914,"INCLINATION":82.5098,"RA_OF_ASC_NODE":0.8413,"ARG_OF_PERICENTER":27.4411,"MEAN_ANOMALY":332.7815,"EPHEMERIS_TYPE":0,"CLASSIFICATION_TYPE":"U","NORAD_CAT_ID":47227,"ELEMENT_SET_NO":999,"REV_AT_EPOCH":23940,"BSTAR":2.3583762e-5,"MEAN_MOTION_DOT":1.3e-7,"MEAN_MOTION_DDOT":0},{"OBJECT_NAME":"GONETS-M 21","OBJECT_ID":"2020-091B","EPOCH":"2026-03-15T06:44:49.442784","MEAN_MOTION":12.4288142,"ECCENTRICITY":0.00157612,"INCLINATION":82.5024,"RA_OF_ASC_NODE":359.5728,"ARG_OF_PERICENTER":41.423,"MEAN_ANOMALY":318.8042,"EPHEMERIS_TYPE":0,"CLASSIFICATION_TYPE":"U","NORAD_CAT_ID":47228,"ELEMENT_SET_NO":999,"REV_AT_EPOCH":23940,"BSTAR":-0.00020839538,"MEAN_MOTION_DOT":-1.9e-7,"MEAN_MOTION_DDOT":0},{"OBJECT_NAME":"GONETS-M 22","OBJECT_ID":"2020-091C","EPOCH":"2026-03-15T06:06:44.473824","MEAN_MOTION":12.42887873,"ECCENTRICITY":0.00226059,"INCLINATION":82.508,"RA_OF_ASC_NODE":0.444,"ARG_OF_PERICENTER":22.7794,"MEAN_ANOMALY":337.4283,"EPHEMERIS_TYPE":0,"CLASSIFICATION_TYPE":"U","NORAD_CAT_ID":47229,"ELEMENT_SET_NO":999,"REV_AT_EPOCH":23935,"BSTAR":-0.00035932389,"MEAN_MOTION_DOT":-4.0e-7,"MEAN_MOTION_DDOT":0},{"OBJECT_NAME":"CUBEL","OBJECT_ID":"2021-006AM","EPOCH":"2026-03-15T02:07:58.518336","MEAN_MOTION":15.39370514,"ECCENTRICITY":0.00078431,"INCLINATION":97.2471,"RA_OF_ASC_NODE":125.6371,"ARG_OF_PERICENTER":142.4226,"MEAN_ANOMALY":217.757,"EPHEMERIS_TYPE":0,"CLASSIFICATION_TYPE":"U","NORAD_CAT_ID":47448,"ELEMENT_SET_NO":999,"REV_AT_EPOCH":28527,"BSTAR":0.00031450506,"MEAN_MOTION_DOT":0.00012228,"MEAN_MOTION_DDOT":0},{"OBJECT_NAME":"ASTROCAST-0103","OBJECT_ID":"2021-006CC","EPOCH":"2026-03-15T04:03:37.375776","MEAN_MOTION":15.74217723,"ECCENTRICITY":0.0005682,"INCLINATION":97.2627,"RA_OF_ASC_NODE":143.7922,"ARG_OF_PERICENTER":142.1671,"MEAN_ANOMALY":217.9994,"EPHEMERIS_TYPE":0,"CLASSIFICATION_TYPE":"U","NORAD_CAT_ID":47487,"ELEMENT_SET_NO":999,"REV_AT_EPOCH":28638,"BSTAR":0.00068997866,"MEAN_MOTION_DOT":0.00099809,"MEAN_MOTION_DDOT":0},{"OBJECT_NAME":"ARKTIKA-M 1","OBJECT_ID":"2021-016A","EPOCH":"2026-03-13T18:55:45.599808","MEAN_MOTION":2.00619294,"ECCENTRICITY":0.7248342,"INCLINATION":63.2042,"RA_OF_ASC_NODE":71.2738,"ARG_OF_PERICENTER":269.5023,"MEAN_ANOMALY":15.1596,"EPHEMERIS_TYPE":0,"CLASSIFICATION_TYPE":"U","NORAD_CAT_ID":47719,"ELEMENT_SET_NO":999,"REV_AT_EPOCH":3687,"BSTAR":0,"MEAN_MOTION_DOT":-1.08e-6,"MEAN_MOTION_DDOT":0},{"OBJECT_NAME":"STARLINK-2342","OBJECT_ID":"2021-021Z","EPOCH":"2026-03-15T04:23:14.099712","MEAN_MOTION":15.45121825,"ECCENTRICITY":7.679e-5,"INCLINATION":53.16,"RA_OF_ASC_NODE":241.8695,"ARG_OF_PERICENTER":67.7175,"MEAN_ANOMALY":292.3913,"EPHEMERIS_TYPE":0,"CLASSIFICATION_TYPE":"U","NORAD_CAT_ID":47883,"ELEMENT_SET_NO":999,"REV_AT_EPOCH":27727,"BSTAR":0.0015896269,"MEAN_MOTION_DOT":0.00076797,"MEAN_MOTION_DDOT":0},{"OBJECT_NAME":"GRUS-1B","OBJECT_ID":"2021-022C","EPOCH":"2026-03-15T07:32:17.621376","MEAN_MOTION":14.98753251,"ECCENTRICITY":0.00144892,"INCLINATION":97.5544,"RA_OF_ASC_NODE":320.54,"ARG_OF_PERICENTER":280.9526,"MEAN_ANOMALY":79.0067,"EPHEMERIS_TYPE":0,"CLASSIFICATION_TYPE":"U","NORAD_CAT_ID":47934,"ELEMENT_SET_NO":999,"REV_AT_EPOCH":27183,"BSTAR":0.00013104752,"MEAN_MOTION_DOT":1.523e-5,"MEAN_MOTION_DDOT":0},{"OBJECT_NAME":"2021-022F","OBJECT_ID":"2021-022F","EPOCH":"2026-03-15T06:39:12.303072","MEAN_MOTION":15.31438187,"ECCENTRICITY":0.00119168,"INCLINATION":97.3987,"RA_OF_ASC_NODE":335.118,"ARG_OF_PERICENTER":70.2787,"MEAN_ANOMALY":289.9739,"EPHEMERIS_TYPE":0,"CLASSIFICATION_TYPE":"U","NORAD_CAT_ID":47937,"ELEMENT_SET_NO":999,"REV_AT_EPOCH":27533,"BSTAR":0.00037530415,"MEAN_MOTION_DOT":0.00011346,"MEAN_MOTION_DDOT":0}]
